ORBCOMM FM115           
1 41186U 15081H   24252.41548312  .00003420  00000+0  72242-3 0  9996
2 41186  46.9978 298.5148 0001433 258.4220 101.6506 14.61177578466547
ORBCOMM FM108           
1 41187U 15081J   24252.66904000  .00005210  00000+0  11825-2 0  9992
2 41187  47.0056 355.4678 0001167 113.4644 246.6364 14.57056134465722
ORBCOMM FM117           
1 41188U 15081K   24252.70382935  .00005082  00000+0  11546-2 0  9992
2 41188  47.0016 354.1603 0001926 126.7228 233.3834 14.57040607465779
ORBCOMM FM116           
1 41189U 15081L   24252.89947870  .00003500  00000+0  80815-3 0  9997
2 41189  47.0004  83.0730 0002622 205.4238 154.6519 14.56976870464612
